CZ-2C R/B               
1 28222U 04012C   17186.29064882  .00000176  00000-0  14752-4 0  9992
2 28222  97.5261 142.4416 0049681 122.6307   9.5230 15.09254812723300
SL-16 R/B               
1 28353U 04021B   17186.04377283 -.00000022  00000-0  13502-4 0  9995
2 28353  71.0003  41.0193 0005226 197.2740 162.8206 14.14202118674676
CZ-2C R/B               
1 28480U 04046B   17186.27207094 -.00000001  00000-0  14952-4 0  9997
2 28480  98.1965 281.2986 0142336 170.7018 211.2164 14.25642015656791
ARIANE 5 R/B            
1 28499U 04049H   17186.23999503  .00000032  00000-0  11279-4 0  9991
2 28499  98.0784 269.3632 0093057 156.5993 264.0710 14.79822074676624
CZ-2D R/B               
1 28738U 05024B   17186.14488900  .00000197  00000-0  15534-4 0  9995
2 28738  97.4956 222.6725 0010876 307.8003  52.2241 15.11162234658505
SUZAKU (ASTRO-EII)      
1 28773U 05025A   17186.23549858  .00000603  00000-0  26327-4 0  9999
2 28773  31.3816 179.3890 0004776 169.4221 190.6526 15.15844610660115
ALOS (DAICHI)           
1 28931U 06002A   17186.27036765  .00000175  00000-0  43227-4 0  9995
2 28931  97.8429 212.7217 0000576 109.1797 250.9467 14.62365893610106
H-2A R/B                
1 28932U 06002B   17186.28794337  .00000307  00000-0  35052-4 0  9997
2 28932  98.2068 109.9063 0088593 252.0130 270.4575 14.91385500620399
AKARI (ASTRO-F)         
1 28939U 06005A   17186.23999008  .00002404  00000-0  75401-4 0  9996
2 28939  98.2520  29.3633 0107843 123.4583 237.7021 15.28739782615853
RESURS-DK 1             
1 29228U 06021A   17186.22008472  .00000064  00000-0  12298-4 0  9996
2 29228  69.9359  52.2004 0007178 296.8496  63.1930 15.02167770610809
GENESIS 1               
1 29252U 06029A   17186.28370287  .00000346  00000-0  27812-4 0  9994
2 29252  64.5036 226.4082 0017410 321.3874  38.6002 15.16798309604492
CZ-4B R/B               
1 29507U 06046C   17186.08091064 -.00000057  00000-0  59144-6 0  9992
2 29507  97.7832 193.6514 0045700 177.7121 182.4320 15.00065074583679
CZ-2C R/B               
1 31114U 07010B   17186.17585220 -.00000015  00000-0  12040-4 0  9999
2 31114  98.3971  87.7237 0060043 162.3409 197.9873 14.19245243530053
COSMO-SKYMED 1          
1 31598U 07023A   17186.26631341 -.00000094  00000-0 -52424-5 0  9994
2 31598  97.8876   9.7079 0001365  89.0863 271.0509 14.82151425545128
GENESIS 2               
1 31789U 07028A   17186.20540950  .00000125  00000-0  16986-4 0  9995
2 31789  64.5043 264.6691 0028051 222.5313 137.3636 15.16076145551646
COSMOS 2428             
1 31792U 07029A   17186.26477387  .00000225  00000-0  14831-3 0  9996
2 31792  70.9180  14.1509 0011469 248.3240 111.6660 14.12282381516536
SL-16 R/B               
1 31793U 07029B   17186.06313309 -.00000261  00000-0 -11132-3 0  9991
2 31793  70.9763 351.6134 0002083 269.4090 229.0212 14.14385096517241
KORONAS-FOTON           
1 33504U 09003A   17186.26733010  .00000136  00000-0  55340-5 0  9994
2 33504  82.4416 215.0150 0020676  50.9031 309.4036 15.14844242464111
TIANGONG 1              
1 37820U 11053A   17186.16913919  .00022960  00000-0  12270-3 0  9996
2 37820  42.7594  89.8036 0019190 210.3060 272.4378 15.79611509330811
CZ-3B R/B               
1 38253U 12018D   17186.25476495  .00961151  59308-5  24664-3 0  9996
2 38253  54.8426 126.9709 1268275 305.8465  43.1011 13.45123633130294
H-2A R/B                
1 38341U 12025E   17186.24674128  .00000108  00000-0  20238-4 0  9994
2 38341  98.4338 264.2782 0057251 100.1998 260.5678 14.83583766277477
CUSAT 2 & FALCON 9 R/B  
1 39271U 13055G   17185.86764079  .00008241  00000-0  21058-3 0  9999
2 39271  80.9680 338.4256 0632959 149.9301 213.9878 14.37399736195169
ALOS-2                  
1 39766U 14029A   17186.24057684 -.00000292  00000-0 -32226-4 0  9990
2 39766  97.9211 283.3039 0001493  77.4565 282.6852 14.79467756168274
ASTRO-H (HITOMI)        
1 41337U 16012A   17185.91088126  .00000255  00000-0  13852-4 0  9990
2 41337  31.0070   6.4903 0012559 216.3675 143.6107 14.98316370 75584
TIANGONG-2              
1 41765U 16057A   17186.24888709  .00003395  00000-0  48886-4 0  9999
2 41765  42.7827 247.4454 0003356 342.9597 124.7188 15.57993930 45800
